SL-3 R/B                
1 13403U 82079B   26002.16982001  .00009952  00000+0  40731-3 0  9996
2 13403  81.1476 271.5759 0026387  33.4844 326.8049 15.23872275367569
SL-14 R/B               
1 13553U 82092B   26002.08664265  .00000871  00000+0  95223-4 0  9995
2 13553  82.5669 203.6822 0020834 158.3220 321.1887 14.86579087319037
SL-3 R/B                
1 13819U 83010B   26002.18970187  .00022022  00000+0  47787-3 0  9998
2 13819  81.1051  83.6468 0016282 277.8735  82.0660 15.44107682347670
SL-3 R/B                
1 14208U 83075B   26002.10831993  .00016600  00000+0  46165-3 0  9999
2 14208  97.6102   4.2823 0024466 106.3260 254.0677 15.36619372319929
COSMOS 1536             
1 14699U 84013A   26001.91590453  .00012356  00000+0  52528-3 0  9991
2 14699  82.5445 174.1511 0015030 153.3286 206.8727 15.22810626262450
SL-14 R/B               
1 14820U 84027B   26001.89271905  .00000913  00000+0  10175-3 0  9995
2 14820  82.5429 307.6578 0017585 189.8404 170.2471 14.85900288237710
SL-8 R/B                
1 15483U 85006B   26002.14009887  .00000532  00000+0  18514-3 0  9998
2 15483  74.0458  23.5997 0019511 311.9650 115.1037 14.37736578144466
SL-12 R/B(2)            
1 15772U 85042D   26002.09603854  .00000156  00000+0  91734-4 0  9995
2 15772  71.1067 228.4164 0037030 231.5449 290.9270 14.21958607104922
SL-14 R/B               
1 15945U 85069B   26002.16711468  .00000912  00000+0  10041-3 0  9996
2 15945  82.5270  87.4995 0020030  55.5964 304.7142 14.86351700162950
SL-16 R/B               
1 16182U 85097B   26002.20647333  .00000125  00000+0  86663-4 0  9995
2 16182  71.0030 280.5161 0007917 340.3229 181.3157 14.16587110 77814
SL-14 R/B               
1 16496U 86006B   26001.95904671  .00001131  00000+0  11747-3 0  9994
2 16496  82.5279 322.5266 0077821 133.0675 227.7092 14.86702187139294
COSMOS 1743             
1 16719U 86034A   26001.88998526  .00043134  00000+0  67658-3 0  9998
2 16719  82.5349 143.6432 0004971 173.9849 186.1464 15.53487513169864
