CCSDS_OMM_VERS = 2.0
CREATION_DATE  = 
ORIGINATOR     = 

OBJECT_NAME    = SL-3 R/B
OBJECT_ID      = 1982-079B
CENTER_NAME    = EARTH
REF_FRAME      = TEME
TIME_SYSTEM    = UTC
MEAN_ELEMENT_THEORY = SGP/SGP4

EPOCH          = 2026-01-02T04:04:32.448864
MEAN_MOTION    = 15.23872275
ECCENTRICITY   = .0026387
INCLINATION    = 81.1476
RA_OF_ASC_NODE = 271.5759
ARG_OF_PERICENTER = 33.4844
MEAN_ANOMALY   = 326.8049

EPHEMERIS_TYPE = 0
CLASSIFICATION_TYPE = U
NORAD_CAT_ID   = 13403
ELEMENT_SET_NO = 999
REV_AT_EPOCH   = 36756
BSTAR          = .40731E-3
MEAN_MOTION_DOT = .9952E-4
MEAN_MOTION_DDOT = 0

CCSDS_OMM_VERS = 2.0
CREATION_DATE  = 
ORIGINATOR     = 

OBJECT_NAME    = SL-14 R/B
OBJECT_ID      = 1982-092B
CENTER_NAME    = EARTH
REF_FRAME      = TEME
TIME_SYSTEM    = UTC
MEAN_ELEMENT_THEORY = SGP/SGP4

EPOCH          = 2026-01-02T02:04:45.924960
MEAN_MOTION    = 14.86579087
ECCENTRICITY   = .0020834
INCLINATION    = 82.5669
RA_OF_ASC_NODE = 203.6822
ARG_OF_PERICENTER = 158.3220
MEAN_ANOMALY   = 321.1887

EPHEMERIS_TYPE = 0
CLASSIFICATION_TYPE = U
NORAD_CAT_ID   = 13553
ELEMENT_SET_NO = 999
REV_AT_EPOCH   = 31903
BSTAR          = .95223E-4
MEAN_MOTION_DOT = .871E-5
MEAN_MOTION_DDOT = 0

CCSDS_OMM_VERS = 2.0
CREATION_DATE  = 
ORIGINATOR     = 

OBJECT_NAME    = SL-3 R/B
OBJECT_ID      = 1983-010B
CENTER_NAME    = EARTH
REF_FRAME      = TEME
TIME_SYSTEM    = UTC
MEAN_ELEMENT_THEORY = SGP/SGP4

EPOCH          = 2026-01-02T04:33:10.241568
MEAN_MOTION    = 15.44107682
ECCENTRICITY   = .0016282
INCLINATION    = 81.1051
RA_OF_ASC_NODE = 83.6468
ARG_OF_PERICENTER = 277.8735
MEAN_ANOMALY   = 82.0660

EPHEMERIS_TYPE = 0
CLASSIFICATION_TYPE = U
NORAD_CAT_ID   = 13819
ELEMENT_SET_NO = 999
REV_AT_EPOCH   = 34767
BSTAR          = .47787E-3
MEAN_MOTION_DOT = .22022E-3
MEAN_MOTION_DDOT = 0

CCSDS_OMM_VERS = 2.0
CREATION_DATE  = 
ORIGINATOR     = 

OBJECT_NAME    = SL-3 R/B
OBJECT_ID      = 1983-075B
CENTER_NAME    = EARTH
REF_FRAME      = TEME
TIME_SYSTEM    = UTC
MEAN_ELEMENT_THEORY = SGP/SGP4

EPOCH          = 2026-01-02T02:35:58.841952
MEAN_MOTION    = 15.36619372
ECCENTRICITY   = .0024466
INCLINATION    = 97.6102
RA_OF_ASC_NODE = 4.2823
ARG_OF_PERICENTER = 106.3260
MEAN_ANOMALY   = 254.0677

EPHEMERIS_TYPE = 0
CLASSIFICATION_TYPE = U
NORAD_CAT_ID   = 14208
ELEMENT_SET_NO = 999
REV_AT_EPOCH   = 31992
BSTAR          = .46165E-3
MEAN_MOTION_DOT = .166E-3
MEAN_MOTION_DDOT = 0

CCSDS_OMM_VERS = 2.0
CREATION_DATE  = 
ORIGINATOR     = 

OBJECT_NAME    = COSMOS 1536
OBJECT_ID      = 1984-013A
CENTER_NAME    = EARTH
REF_FRAME      = TEME
TIME_SYSTEM    = UTC
MEAN_ELEMENT_THEORY = SGP/SGP4

EPOCH          = 2026-01-01T21:58:54.151392
MEAN_MOTION    = 15.22810626
ECCENTRICITY   = .001503
INCLINATION    = 82.5445
RA_OF_ASC_NODE = 174.1511
ARG_OF_PERICENTER = 153.3286
MEAN_ANOMALY   = 206.8727

EPHEMERIS_TYPE = 0
CLASSIFICATION_TYPE = U
NORAD_CAT_ID   = 14699
ELEMENT_SET_NO = 999
REV_AT_EPOCH   = 26245
BSTAR          = .52528E-3
MEAN_MOTION_DOT = .12356E-3
MEAN_MOTION_DDOT = 0

CCSDS_OMM_VERS = 2.0
CREATION_DATE  = 
ORIGINATOR     = 

OBJECT_NAME    = SL-14 R/B
OBJECT_ID      = 1984-027B
CENTER_NAME    = EARTH
REF_FRAME      = TEME
TIME_SYSTEM    = UTC
MEAN_ELEMENT_THEORY = SGP/SGP4

EPOCH          = 2026-01-01T21:25:30.925920
MEAN_MOTION    = 14.85900288
ECCENTRICITY   = .0017585
INCLINATION    = 82.5429
RA_OF_ASC_NODE = 307.6578
ARG_OF_PERICENTER = 189.8404
MEAN_ANOMALY   = 170.2471

EPHEMERIS_TYPE = 0
CLASSIFICATION_TYPE = U
NORAD_CAT_ID   = 14820
ELEMENT_SET_NO = 999
REV_AT_EPOCH   = 23771
BSTAR          = .10175E-3
MEAN_MOTION_DOT = .913E-5
MEAN_MOTION_DDOT = 0

CCSDS_OMM_VERS = 2.0
CREATION_DATE  = 
ORIGINATOR     = 

OBJECT_NAME    = SL-8 R/B
OBJECT_ID      = 1985-006B
CENTER_NAME    = EARTH
REF_FRAME      = TEME
TIME_SYSTEM    = UTC
MEAN_ELEMENT_THEORY = SGP/SGP4

EPOCH          = 2026-01-02T03:21:44.542368
MEAN_MOTION    = 14.37736578
ECCENTRICITY   = .0019511
INCLINATION    = 74.0458
RA_OF_ASC_NODE = 23.5997
ARG_OF_PERICENTER = 311.9650
MEAN_ANOMALY   = 115.1037

EPHEMERIS_TYPE = 0
CLASSIFICATION_TYPE = U
NORAD_CAT_ID   = 15483
ELEMENT_SET_NO = 999
REV_AT_EPOCH   = 14446
BSTAR          = .18514E-3
MEAN_MOTION_DOT = .532E-5
MEAN_MOTION_DDOT = 0

CCSDS_OMM_VERS = 2.0
CREATION_DATE  = 
ORIGINATOR     = 

OBJECT_NAME    = SL-12 R/B(2)
OBJECT_ID      = 1985-042D
CENTER_NAME    = EARTH
REF_FRAME      = TEME
TIME_SYSTEM    = UTC
MEAN_ELEMENT_THEORY = SGP/SGP4

EPOCH          = 2026-01-02T02:18:17.729856
MEAN_MOTION    = 14.21958607
ECCENTRICITY   = .003703
INCLINATION    = 71.1067
RA_OF_ASC_NODE = 228.4164
ARG_OF_PERICENTER = 231.5449
MEAN_ANOMALY   = 290.9270

EPHEMERIS_TYPE = 0
CLASSIFICATION_TYPE = U
NORAD_CAT_ID   = 15772
ELEMENT_SET_NO = 999
REV_AT_EPOCH   = 10492
BSTAR          = .91734E-4
MEAN_MOTION_DOT = .156E-5
MEAN_MOTION_DDOT = 0

CCSDS_OMM_VERS = 2.0
CREATION_DATE  = 
ORIGINATOR     = 

OBJECT_NAME    = SL-14 R/B
OBJECT_ID      = 1985-069B
CENTER_NAME    = EARTH
REF_FRAME      = TEME
TIME_SYSTEM    = UTC
MEAN_ELEMENT_THEORY = SGP/SGP4

EPOCH          = 2026-01-02T04:00:38.708352
MEAN_MOTION    = 14.86351700
ECCENTRICITY   = .002003
INCLINATION    = 82.5270
RA_OF_ASC_NODE = 87.4995
ARG_OF_PERICENTER = 55.5964
MEAN_ANOMALY   = 304.7142

EPHEMERIS_TYPE = 0
CLASSIFICATION_TYPE = U
NORAD_CAT_ID   = 15945
ELEMENT_SET_NO = 999
REV_AT_EPOCH   = 16295
BSTAR          = .10041E-3
MEAN_MOTION_DOT = .912E-5
MEAN_MOTION_DDOT = 0

CCSDS_OMM_VERS = 2.0
CREATION_DATE  = 
ORIGINATOR     = 

OBJECT_NAME    = SL-16 R/B
OBJECT_ID      = 1985-097B
CENTER_NAME    = EARTH
REF_FRAME      = TEME
TIME_SYSTEM    = UTC
MEAN_ELEMENT_THEORY = SGP/SGP4

EPOCH          = 2026-01-02T04:57:19.295712
MEAN_MOTION    = 14.16587110
ECCENTRICITY   = .0007917
INCLINATION    = 71.0030
RA_OF_ASC_NODE = 280.5161
ARG_OF_PERICENTER = 340.3229
MEAN_ANOMALY   = 181.3157

EPHEMERIS_TYPE = 0
CLASSIFICATION_TYPE = U
NORAD_CAT_ID   = 16182
ELEMENT_SET_NO = 999
REV_AT_EPOCH   = 7781
BSTAR          = .86663E-4
MEAN_MOTION_DOT = .125E-5
MEAN_MOTION_DDOT = 0

CCSDS_OMM_VERS = 2.0
CREATION_DATE  = 
ORIGINATOR     = 

OBJECT_NAME    = SL-14 R/B
OBJECT_ID      = 1986-006B
CENTER_NAME    = EARTH
REF_FRAME      = TEME
TIME_SYSTEM    = UTC
MEAN_ELEMENT_THEORY = SGP/SGP4

EPOCH          = 2026-01-01T23:01:01.635744
MEAN_MOTION    = 14.86702187
ECCENTRICITY   = .0077821
INCLINATION    = 82.5279
RA_OF_ASC_NODE = 322.5266
ARG_OF_PERICENTER = 133.0675
MEAN_ANOMALY   = 227.7092

EPHEMERIS_TYPE = 0
CLASSIFICATION_TYPE = U
NORAD_CAT_ID   = 16496
ELEMENT_SET_NO = 999
REV_AT_EPOCH   = 13929
BSTAR          = .11747E-3
MEAN_MOTION_DOT = .1131E-4
MEAN_MOTION_DDOT = 0

CCSDS_OMM_VERS = 2.0
CREATION_DATE  = 
ORIGINATOR     = 

OBJECT_NAME    = COSMOS 1743
OBJECT_ID      = 1986-034A
CENTER_NAME    = EARTH
REF_FRAME      = TEME
TIME_SYSTEM    = UTC
MEAN_ELEMENT_THEORY = SGP/SGP4

EPOCH          = 2026-01-01T21:21:34.726464
MEAN_MOTION    = 15.53487513
ECCENTRICITY   = .0004971
INCLINATION    = 82.5349
RA_OF_ASC_NODE = 143.6432
ARG_OF_PERICENTER = 173.9849
MEAN_ANOMALY   = 186.1464

EPHEMERIS_TYPE = 0
CLASSIFICATION_TYPE = U
NORAD_CAT_ID   = 16719
ELEMENT_SET_NO = 999
REV_AT_EPOCH   = 16986
BSTAR          = .67658E-3
MEAN_MOTION_DOT = .43134E-3
MEAN_MOTION_DDOT = 0

